GSAT0215 (GALILEO 19)   
1 43055U 17079A   23115.48646193 -.00000014  00000+0  00000+0 0  9998
2 43055  55.5571 253.1290 0000803 296.9705  62.9857  1.70474671 33402
GSAT0216 (GALILEO 20)   
1 43056U 17079B   23116.36505772 -.00000015  00000+0  00000+0 0  9995
2 43056  55.5572 253.1045 0002421 290.1711  69.7697  1.70474762 33434
GSAT0217 (GALILEO 21)   
1 43057U 17079C   23116.58537878 -.00000015  00000+0  00000+0 0  9992
2 43057  55.5547 253.0979 0002289 318.5975  41.3524  1.70474733 33423
GSAT0218 (GALILEO 22)   
1 43058U 17079D   23116.21882289 -.00000015  00000+0  00000+0 0  9992
2 43058  55.5555 253.1053 0002880 281.2867  78.6475  1.70474715 33440
BEIDOU-3 M7             
1 43107U 18003A   23117.18109025 -.00000093  00000+0  00000+0 0  9998
2 43107  55.1877 341.9397 0005574  54.3523 141.7745  1.86232394 35992
BEIDOU-3 M8             
1 43108U 18003B   23116.59477507 -.00000096  00000+0  00000+0 0  9999
2 43108  55.1823 341.9479 0002369 279.7032 285.4688  1.86230876 35986
BEIDOU-3 M4             
1 43207U 18018A   23116.19469678  .00000025  00000+0  00000+0 0  9992
2 43207  55.7115 101.3119 0007264 327.4022  32.5398  1.86231441 35364
BEIDOU-3 M3             
1 43208U 18018B   23116.26127049  .00000025  00000+0  00000+0 0  9994
2 43208  55.7107 101.3133 0010430 302.5293  57.3569  1.86231461 35362
BEIDOU-3 M9             
1 43245U 18029A   23117.17990270 -.00000090  00000+0  00000+0 0  9995
2 43245  55.0878 339.6847 0001191  16.9408  89.0676  1.86232541 34536
BEIDOU-3 M10            
1 43246U 18029B   23116.93780979 -.00000091  00000+0  10000-3 0  9998
2 43246  55.0842 339.7219 0005017  10.3216 340.1561  1.86232751 34513
IRNSS-1I                
1 43286U 18035A   23116.00882712  .00000103  00000+0  00000+0 0  9993
2 43286  28.9576  92.2882 0019293 187.7610 351.8663  1.00274003 18566
COSMOS 2527 [GLONASS-M] 
1 43508U 18053A   23116.61987515  .00000059  00000+0  00000+0 0  9994
2 43508  65.0521 112.3341 0009974 243.4273  21.8435  2.13102446 37815
BEIDOU-2 IGSO-7         
1 43539U 18057A   23116.56855130 -.00000113  00000+0  00000+0 0  9995
2 43539  55.1006 172.9791 0059978 230.1486 128.4141  1.00270872 17647
GSAT0221 (GALILEO 25)   
1 43564U 18060A   23116.11796713 -.00000105  00000+0  00000+0 0  9990
2 43564  57.2612  12.7361 0003565 312.9612  47.0401  1.70475619 29591
GSAT0222 (GALILEO 26)   
1 43565U 18060B   23116.92445858 -.00000103  00000+0  00000+0 0  9999
2 43565  57.2634  12.7152 0003509 324.9797  35.0285  1.70475531 29656
GSAT0219 (GALILEO 23)   
1 43566U 18060C   23114.79862468 -.00000108  00000+0  00000+0 0  9998
2 43566  57.2635  12.7745 0003333 328.8575  31.1537  1.70475569 29599
GSAT0220 (GALILEO 24)   
1 43567U 18060D   23115.60555527 -.00000107  00000+0  00000+0 0  9994
2 43567  57.2638  12.7530 0003314 321.0427  38.9645  1.70475616 29593
