[{"OBJECT_NAME":"GSAT0215 (PRN E21)","OBJECT_ID":"2017-079A","EPOCH":"2023-04-25T11:40:30.310752","MEAN_MOTION":1.70474671,"ECCENTRICITY":8.03e-5,"INCLINATION":55.5571,"RA_OF_ASC_NODE":253.129,"ARG_OF_PERICENTER":296.9705,"MEAN_ANOMALY":62.9857,"EPHEMERIS_TYPE":0,"CLASSIFICATION_TYPE":"U","NORAD_CAT_ID":43055,"ELEMENT_SET_NO":999,"REV_AT_EPOCH":3340,"BSTAR":0,"MEAN_MOTION_DOT":-1.4e-7,"MEAN_MOTION_DDOT":0},{"OBJECT_NAME":"GSAT0216 (PRN E25)","OBJECT_ID":"2017-079B","EPOCH":"2023-04-26T08:45:40.987008","MEAN_MOTION":1.70474762,"ECCENTRICITY":0.0002421,"INCLINATION":55.5572,"RA_OF_ASC_NODE":253.1045,"ARG_OF_PERICENTER":290.1711,"MEAN_ANOMALY":69.7697,"EPHEMERIS_TYPE":0,"CLASSIFICATION_TYPE":"U","NORAD_CAT_ID":43056,"ELEMENT_SET_NO":999,"REV_AT_EPOCH":3343,"BSTAR":0,"MEAN_MOTION_DOT":-1.5e-7,"MEAN_MOTION_DDOT":0},{"OBJECT_NAME":"GSAT0217 (PRN E27)","OBJECT_ID":"2017-079C","EPOCH":"2023-04-26T14:02:56.726592","MEAN_MOTION":1.70474733,"ECCENTRICITY":0.0002289,"INCLINATION":55.5547,"RA_OF_ASC_NODE":253.0979,"ARG_OF_PERICENTER":318.5975,"MEAN_ANOMALY":41.3524,"EPHEMERIS_TYPE":0,"CLASSIFICATION_TYPE":"U","NORAD_CAT_ID":43057,"ELEMENT_SET_NO":999,"REV_AT_EPOCH":3342,"BSTAR":0,"MEAN_MOTION_DOT":-1.5e-7,"MEAN_MOTION_DDOT":0},{"OBJECT_NAME":"GSAT0218 (PRN E31)","OBJECT_ID":"2017-079D","EPOCH":"2023-04-26T05:15:06.297696","MEAN_MOTION":1.70474715,"ECCENTRICITY":0.000288,"INCLINATION":55.5555,"RA_OF_ASC_NODE":253.1053,"ARG_OF_PERICENTER":281.2867,"MEAN_ANOMALY":78.6475,"EPHEMERIS_TYPE":0,"CLASSIFICATION_TYPE":"U","NORAD_CAT_ID":43058,"ELEMENT_SET_NO":999,"REV_AT_EPOCH":3344,"BSTAR":0,"MEAN_MOTION_DOT":-1.5e-7,"MEAN_MOTION_DDOT":0},{"OBJECT_NAME":"BEIDOU-3 M7 (C27)","OBJECT_ID":"2018-003A","EPOCH":"2023-04-27T04:20:46.197600","MEAN_MOTION":1.86232394,"ECCENTRICITY":0.0005574,"INCLINATION":55.1877,"RA_OF_ASC_NODE":341.9397,"ARG_OF_PERICENTER":54.3523,"MEAN_ANOMALY":141.7745,"EPHEMERIS_TYPE":0,"CLASSIFICATION_TYPE":"U","NORAD_CAT_ID":43107,"ELEMENT_SET_NO":999,"REV_AT_EPOCH":3599,"BSTAR":0,"MEAN_MOTION_DOT":-9.3e-7,"MEAN_MOTION_DDOT":0},{"OBJECT_NAME":"BEIDOU-3 M8 (C28)","OBJECT_ID":"2018-003B","EPOCH":"2023-04-26T14:16:28.566048","MEAN_MOTION":1.86230876,"ECCENTRICITY":0.0002369,"INCLINATION":55.1823,"RA_OF_ASC_NODE":341.9479,"ARG_OF_PERICENTER":279.7032,"MEAN_ANOMALY":285.4688,"EPHEMERIS_TYPE":0,"CLASSIFICATION_TYPE":"U","NORAD_CAT_ID":43108,"ELEMENT_SET_NO":999,"REV_AT_EPOCH":3598,"BSTAR":0,"MEAN_MOTION_DOT":-9.6e-7,"MEAN_MOTION_DDOT":0},{"OBJECT_NAME":"BEIDOU-3 M4 (C22)","OBJECT_ID":"2018-018A","EPOCH":"2023-04-26T04:40:21.801792","MEAN_MOTION":1.86231441,"ECCENTRICITY":0.0007264,"INCLINATION":55.7115,"RA_OF_ASC_NODE":101.3119,"ARG_OF_PERICENTER":327.4022,"MEAN_ANOMALY":32.5398,"EPHEMERIS_TYPE":0,"CLASSIFICATION_TYPE":"U","NORAD_CAT_ID":43207,"ELEMENT_SET_NO":999,"REV_AT_EPOCH":3536,"BSTAR":0,"MEAN_MOTION_DOT":2.5e-7,"MEAN_MOTION_DDOT":0},{"OBJECT_NAME":"BEIDOU-3 M3 (C21)","OBJECT_ID":"2018-018B","EPOCH":"2023-04-26T06:16:13.770336","MEAN_MOTION":1.86231461,"ECCENTRICITY":0.001043,"INCLINATION":55.7107,"RA_OF_ASC_NODE":101.3133,"ARG_OF_PERICENTER":302.5293,"MEAN_ANOMALY":57.3569,"EPHEMERIS_TYPE":0,"CLASSIFICATION_TYPE":"U","NORAD_CAT_ID":43208,"ELEMENT_SET_NO":999,"REV_AT_EPOCH":3536,"BSTAR":0,"MEAN_MOTION_DOT":2.5e-7,"MEAN_MOTION_DDOT":0},{"OBJECT_NAME":"BEIDOU-3 M9 (C29)","OBJECT_ID":"2018-029A","EPOCH":"2023-04-27T04:19:03.593280","MEAN_MOTION":1.86232541,"ECCENTRICITY":0.0001191,"INCLINATION":55.0878,"RA_OF_ASC_NODE":339.6847,"ARG_OF_PERICENTER":16.9408,"MEAN_ANOMALY":89.0676,"EPHEMERIS_TYPE":0,"CLASSIFICATION_TYPE":"U","NORAD_CAT_ID":43245,"ELEMENT_SET_NO":999,"REV_AT_EPOCH":3453,"BSTAR":0,"MEAN_MOTION_DOT":-9.0e-7,"MEAN_MOTION_DDOT":0},{"OBJECT_NAME":"BEIDOU-3 M10 (C30)","OBJECT_ID":"2018-029B","EPOCH":"2023-04-26T22:30:26.765856","MEAN_MOTION":1.86232751,"ECCENTRICITY":0.0005017,"INCLINATION":55.0842,"RA_OF_ASC_NODE":339.7219,"ARG_OF_PERICENTER":10.3216,"MEAN_ANOMALY":340.1561,"EPHEMERIS_TYPE":0,"CLASSIFICATION_TYPE":"U","NORAD_CAT_ID":43246,"ELEMENT_SET_NO":999,"REV_AT_EPOCH":3451,"BSTAR":0.0001,"MEAN_MOTION_DOT":-9.1e-7,"MEAN_MOTION_DDOT":0},{"OBJECT_NAME":"IRNSS-1I (I09)","OBJECT_ID":"2018-035A","EPOCH":"2023-04-26T00:12:42.663168","MEAN_MOTION":1.00274003,"ECCENTRICITY":0.0019293,"INCLINATION":28.9576,"RA_OF_ASC_NODE":92.2882,"ARG_OF_PERICENTER":187.761,"MEAN_ANOMALY":351.8663,"EPHEMERIS_TYPE":0,"CLASSIFICATION_TYPE":"U","NORAD_CAT_ID":43286,"ELEMENT_SET_NO":999,"REV_AT_EPOCH":1856,"BSTAR":0,"MEAN_MOTION_DOT":1.03e-6,"MEAN_MOTION_DDOT":0},{"OBJECT_NAME":"COSMOS 2527 (756)","OBJECT_ID":"2018-053A","EPOCH":"2023-04-26T14:52:37.212960","MEAN_MOTION":2.13102446,"ECCENTRICITY":0.0009974,"INCLINATION":65.0521,"RA_OF_ASC_NODE":112.3341,"ARG_OF_PERICENTER":243.4273,"MEAN_ANOMALY":21.8435,"EPHEMERIS_TYPE":0,"CLASSIFICATION_TYPE":"U","NORAD_CAT_ID":43508,"ELEMENT_SET_NO":999,"REV_AT_EPOCH":3781,"BSTAR":0,"MEAN_MOTION_DOT":5.9e-7,"MEAN_MOTION_DDOT":0},{"OBJECT_NAME":"BEIDOU-2 IGSO-7 (C16)","OBJECT_ID":"2018-057A","EPOCH":"2023-04-26T13:38:42.832320","MEAN_MOTION":1.00270872,"ECCENTRICITY":0.0059978,"INCLINATION":55.1006,"RA_OF_ASC_NODE":172.9791,"ARG_OF_PERICENTER":230.1486,"MEAN_ANOMALY":128.4141,"EPHEMERIS_TYPE":0,"CLASSIFICATION_TYPE":"U","NORAD_CAT_ID":43539,"ELEMENT_SET_NO":999,"REV_AT_EPOCH":1764,"BSTAR":0,"MEAN_MOTION_DOT":-1.13e-6,"MEAN_MOTION_DDOT":0},{"OBJECT_NAME":"GSAT0221 (PRN E15)","OBJECT_ID":"2018-060A","EPOCH":"2023-04-26T02:49:52.360032","MEAN_MOTION":1.70475619,"ECCENTRICITY":0.0003565,"INCLINATION":57.2612,"RA_OF_ASC_NODE":12.7361,"ARG_OF_PERICENTER":312.9612,"MEAN_ANOMALY":47.0401,"EPHEMERIS_TYPE":0,"CLASSIFICATION_TYPE":"U","NORAD_CAT_ID":43564,"ELEMENT_SET_NO":999,"REV_AT_EPOCH":2959,"BSTAR":0,"MEAN_MOTION_DOT":-1.05e-6,"MEAN_MOTION_DDOT":0},{"OBJECT_NAME":"GSAT0222 (PRN E33)","OBJECT_ID":"2018-060B","EPOCH":"2023-04-26T22:11:13.221312","MEAN_MOTION":1.70475531,"ECCENTRICITY":0.0003509,"INCLINATION":57.2634,"RA_OF_ASC_NODE":12.7152,"ARG_OF_PERICENTER":324.9797,"MEAN_ANOMALY":35.0285,"EPHEMERIS_TYPE":0,"CLASSIFICATION_TYPE":"U","NORAD_CAT_ID":43565,"ELEMENT_SET_NO":999,"REV_AT_EPOCH":2965,"BSTAR":0,"MEAN_MOTION_DOT":-1.03e-6,"MEAN_MOTION_DDOT":0},{"OBJECT_NAME":"GSAT0219 (PRN E36)","OBJECT_ID":"2018-060C","EPOCH":"2023-04-24T19:10:01.172352","MEAN_MOTION":1.70475569,"ECCENTRICITY":0.0003333,"INCLINATION":57.2635,"RA_OF_ASC_NODE":12.7745,"ARG_OF_PERICENTER":328.8575,"MEAN_ANOMALY":31.1537,"EPHEMERIS_TYPE":0,"CLASSIFICATION_TYPE":"U","NORAD_CAT_ID":43566,"ELEMENT_SET_NO":999,"REV_AT_EPOCH":2959,"BSTAR":0,"MEAN_MOTION_DOT":-1.08e-6,"MEAN_MOTION_DDOT":0},{"OBJECT_NAME":"GSAT0220 (PRN E13)","OBJECT_ID":"2018-060D","EPOCH":"2023-04-25T14:31:59.975328","MEAN_MOTION":1.70475616,"ECCENTRICITY":0.0003314,"INCLINATION":57.2638,"RA_OF_ASC_NODE":12.753,"ARG_OF_PERICENTER":321.0427,"MEAN_ANOMALY":38.9645,"EPHEMERIS_TYPE":0,"CLASSIFICATION_TYPE":"U","NORAD_CAT_ID":43567,"ELEMENT_SET_NO":999,"REV_AT_EPOCH":2959,"BSTAR":0,"MEAN_MOTION_DOT":-1.07e-6,"MEAN_MOTION_DDOT":0}]
